     2.100          NAVIGATION                              RINEX VERSION / TYPE
fic2rin                                 04/19/2015 00:15:26 PGM / RUN BY / DATE
                                                            END OF HEADER
16 15  4 18 12  0  0.0 -.137528404593D-03  .363797880709D-11  .000000000000D+00
     .420000000000D+02 -.653125000000D+02  .334442502301D-08  .313565593453D+01
    -.341050326824D-05  .818266347051D-02  .133458524942D-04  .515354849434D+04
     .561600000000D+06 -.465661287308D-07  .306904273367D+01 -.335276126862D-07
     .990465142380D+00  .139937500000D+03  .277222399631D+00 -.739637951747D-08
    -.367872466222D-10  .100000000000D+01  .184000000000D+04  .000000000000D+00
     .240000000000D+01  .000000000000D+00 -.102445483208D-07  .420000000000D+02
     .554406000000D+06  .400000000000D+01
17 15  4 18 12  0  0.0 -.166943762451D-03 -.193267624127D-11  .000000000000D+00
     .950000000000D+02  .675625000000D+02  .437982529445D-08  .223709995466D+01
     .351853668690D-05  .100934050279D-01  .793673098087D-05  .515374326897D+04
     .561600000000D+06  .800937414169D-07 -.218756600932D+01 -.195577740669D-06
     .971915708328D+00  .230000000000D+03 -.201110243325D+01 -.794354516626D-08
     .793247327650D-09  .100000000000D+01  .184000000000D+04  .000000000000D+00
     .240000000000D+01  .000000000000D+00 -.107102096081D-07  .950000000000D+02
     .554406000000D+06  .400000000000D+01
18 15  4 18 12  0  0.0  .394848175347D-03  .284217094304D-11  .000000000000D+00
     .260000000000D+02 -.159375000000D+02  .500878006437D-08 -.255592583975D+01
    -.899657607079D-06  .160745034227D-01  .136606395245D-04  .515378052711D+04
     .561600000000D+06  .232830643654D-06 -.156079582758D+00 -.428408384323D-07
     .925603603060D+00  .910937500000D+02 -.197667832360D+01 -.799247577584D-08
    -.240367155114D-09  .100000000000D+01  .184000000000D+04  .000000000000D+00
     .240000000000D+01  .000000000000D+00 -.111758708954D-07  .260000000000D+02
     .554406000000D+06  .400000000000D+01
19 15  4 18 12  0  0.0 -.507707707584D-03 -.113686837722D-11  .000000000000D+00
     .420000000000D+02  .689062500000D+02  .456519015849D-08  .145579419926D+01
     .361539423466D-05  .112381507643D-01  .761821866035D-05  .515371625328D+04
     .561600000000D+06 -.115483999252D-06 -.213782435886D+01  .175088644028D-06
     .968946528832D+00  .237218750000D+03  .530976016437D+00 -.827855912093D-08
     .560737642688D-09  .100000000000D+01  .184000000000D+04  .000000000000D+00
     .240000000000D+01  .000000000000D+00 -.153668224812D-07  .420000000000D+02
     .554406000000D+06  .400000000000D+01
20 15  4 18 12  0  0.0  .311446841806D-03  .375166564481D-11  .000000000000D+00
     .250000000000D+02 -.690625000000D+01  .508271171534D-08  .258653450105D+01
    -.445172190666D-06  .569486431777D-02  .138301402330D-04  .515579927063D+04
     .561600000000D+06  .447034835815D-07 -.208571530904D+00 -.104308128357D-06
     .926753559074D+00  .935625000000D+02  .122152336702D+01 -.809962309610D-08
    -.441446959466D-09  .100000000000D+01  .184000000000D+04  .000000000000D+00
     .240000000000D+01  .000000000000D+00 -.838190317154D-08  .250000000000D+02
     .554406000000D+06  .400000000000D+01
21 15  4 18 12  0  0.0 -.437752809376D-03 -.363797880709D-11  .000000000000D+00
     .130000000000D+02 -.335312500000D+02  .568023660465D-08 -.147540383930D+01
    -.122934579849D-05  .225309415255D-01  .333227217197D-05  .515357079887D+04
     .561600000000D+06  .437721610069D-06 -.119964361605D+01  .363215804100D-06
     .933358771716D+00  .293281250000D+03 -.192000490208D+01 -.869143346166D-08
    -.177150236161D-09  .100000000000D+01  .184000000000D+04  .000000000000D+00
     .240000000000D+01  .000000000000D+00 -.116415321827D-07  .130000000000D+02
     .554406000000D+06  .400000000000D+01
22 15  4 18 12  0  0.0  .341034028679D-03  .409272615798D-11  .000000000000D+00
     .190000000000D+02 -.165312500000D+02  .516592946741D-08 -.299547964790D+01
    -.957399606705D-06  .779388193041D-02  .134091824293D-04  .515370012093D+04
     .561600000000D+06  .745058059692D-07 -.154838214845D+00 -.102445483208D-06
     .923413184597D+00  .100750000000D+03 -.205918561591D+01 -.814605360154D-08
    -.319656172105D-09  .100000000000D+01  .184000000000D+04  .000000000000D+00
     .240000000000D+01  .000000000000D+00 -.176951289177D-07  .190000000000D+02
     .554406000000D+06  .400000000000D+01
23 15  4 18 12  0  0.0 -.102686230093D-03 -.250111042988D-11  .000000000000D+00
     .780000000000D+02  .129843750000D+03  .506842540598D-08  .103994467449D+01
     .705011188984D-05  .100145384204D-01  .585243105888D-05  .515363646889D+04
     .561600000000D+06 -.111758708954D-07  .914725756765D+00  .145286321640D-06
     .948905114370D+00  .259406250000D+03 -.269787024428D+01 -.862893085818D-08
     .266082511976D-09  .100000000000D+01  .184000000000D+04  .000000000000D+00
     .240000000000D+01  .000000000000D+00 -.200234353542D-07  .780000000000D+02
     .554406000000D+06  .400000000000D+01
24 15  4 18 12  0  0.0 -.468255020678D-04 -.568434188608D-12  .000000000000D+00
     .700000000000D+02 -.674062500000D+02  .521414576153D-08  .294611934215D+00
    -.352039933205D-05  .321862963028D-02  .149011611938D-05  .515367270088D+04
     .561600000000D+06  .335276126862D-07  .194216477846D+01  .651925802231D-07
     .953517917437D+00  .342437500000D+03  .351953921002D+00 -.883322508214D-08
    -.429660754238D-09  .100000000000D+01  .184000000000D+04  .000000000000D+00
     .340000000000D+01  .000000000000D+00  .232830643654D-08  .700000000000D+02
     .554406000000D+06  .400000000000D+01
25 15  4 18 12  0  0.0 -.208606943488D-04 -.352429196937D-11  .000000000000D+00
     .400000000000D+02 -.953437500000D+02  .362157942475D-08 -.168956222948D+01
    -.490248203278D-05  .452240393497D-02  .134781002998D-04  .515370176888D+04
     .561600000000D+06  .614672899246D-07  .300424370192D+01 -.158324837685D-06
     .978413895346D+00  .129687500000D+03  .693595161925D+00 -.754710008130D-08
    -.170721396946D-09  .100000000000D+01  .184000000000D+04  .000000000000D+00
     .240000000000D+01  .000000000000D+00  .558793544769D-08  .400000000000D+02
     .554406000000D+06  .400000000000D+01
26 15  4 18 12  0  0.0  .192164443433D-04  .716227077646D-11  .000000000000D+00
     .174000000000D+03 -.821562500000D+02  .409838499990D-08  .277921920390D+01
    -.422634184361D-05  .224937917665D-03  .129081308842D-04  .515356247520D+04
     .561600000000D+06  .521540641785D-07  .300234666144D+01  .558793544769D-07
     .960532109309D+00  .133781250000D+03  .112744158976D+01 -.784068373881D-08
    -.753602819154D-10  .100000000000D+01  .184000000000D+04  .000000000000D+00
     .240000000000D+01  .630000000000D+02  .745058059692D-08  .174000000000D+03
     .554406000000D+06  .400000000000D+01
27 15  4 18 12  0  0.0  .658398494124D-04  .272848410532D-11  .000000000000D+00
     .480000000000D+02  .663125000000D+02  .446375736198D-08  .233724560343D+01
     .347383320332D-05  .232962297741D-02  .825896859169D-05  .515369040489D+04
     .561600000000D+06 -.875443220139D-07 -.223509646202D+01  .335276126862D-07
     .966835226442D+00  .221093750000D+03  .165955485238D+00 -.811962392921D-08
     .728601777760D-09  .100000000000D+01  .184000000000D+04  .000000000000D+00
     .240000000000D+01  .000000000000D+00  .139698386192D-08  .480000000000D+02
     .554406000000D+06  .400000000000D+01
28 15  4 18 12  0  0.0  .433813314885D-03  .261479726760D-11  .000000000000D+00
     .560000000000D+02 -.663750000000D+02  .321299097683D-08  .306446106297D+01
    -.342540442944D-05  .195296294987D-01  .148750841618D-04  .515370329666D+04
     .561600000000D+06  .186264514923D-06  .307442848706D+01 -.428408384323D-07
     .989070441634D+00  .101062500000D+03 -.166480740269D+01 -.706922303294D-08
    -.539308178636D-10  .100000000000D+01  .184000000000D+04  .000000000000D+00
     .240000000000D+01  .000000000000D+00 -.111758708954D-07  .560000000000D+02
     .554406000000D+06  .400000000000D+01
29 15  4 18 12  0  0.0  .605054199696D-03  .227373675443D-11  .000000000000D+00
     .490000000000D+02  .597500000000D+02  .439268297288D-08 -.132738849590D+01
     .313483178616D-05  .136237463448D-02  .830926001072D-05  .515377123260D+04
     .561600000000D+06 -.223517417908D-07 -.217823492533D+01 -.558793544769D-08
     .972742185359D+00  .226562500000D+03 -.677811766564D+00 -.801069082028D-08
     .762531762509D-09  .100000000000D+01  .184000000000D+04  .000000000000D+00
     .240000000000D+01  .000000000000D+00 -.977888703346D-08  .490000000000D+02
     .554406000000D+06  .400000000000D+01
30 15  4 18 12  0  0.0 -.700568780303D-04  .409272615798D-11  .000000000000D+00
     .800000000000D+02 -.895625000000D+02  .494413451448D-08 -.323517510180D+00
    -.480003654957D-05  .123885401990D-02  .326707959175D-05  .515374710846D+04
     .561600000000D+06 -.223517417908D-07  .203229233350D+01 -.130385160446D-07
     .956065028975D+00  .314906250000D+03  .284701478635D+01 -.859071498062D-08
    -.519307345521D-09  .100000000000D+01  .184000000000D+04  .000000000000D+00
     .240000000000D+01  .000000000000D+00  .325962901115D-08  .800000000000D+02
     .554406000000D+06  .400000000000D+01
32 15  4 18 12  0  0.0 -.173044390976D-03  .954969436862D-11  .000000000000D+00
     .440000000000D+02  .183125000000D+02  .471733935326D-08 -.481938319237D-02
     .102818012238D-05  .112583112204D-01  .128187239170D-04  .515379802513D+04
     .561600000000D+06  .152736902237D-06 -.549690283321D-01  .558793544769D-08
     .947533886144D+00  .130656250000D+03  .360284216884D-01 -.819605568433D-08
    -.200008331150D-09  .100000000000D+01  .184000000000D+04  .000000000000D+00
     .240000000000D+01  .000000000000D+00 -.372529029846D-08  .440000000000D+02
     .554406000000D+06  .400000000000D+01
